start=new Date('2023-03-05T00:00:00.000Z').valueOf();
sats=[{"GP_ID":"227482236","COUNTRY_CODE":"US","SITE":"AFETR","ECCENTRICITY":"0.00026440","EPOCH":"2023-03-04T20:03:56.009088","OBJECT_NAME":"STARLINK-2171","MEAN_ELEMENT_THEORY":"SGP4","INCLINATION":"53.0541","TLE_LINE2":"2 47754  53.0541 113.5386 0002644  80.5804 279.5483 15.06404396111172","REV_AT_EPOCH":"11117","CLASSIFICATION_TYPE":"U","RCS_SIZE":"LARGE","ARG_OF_PERICENTER":"80.5804","FILE":"3851188","MEAN_MOTION":"15.06404396","RA_OF_ASC_NODE":"113.5386","LAUNCH_DATE":"2021-03-04","APOAPSIS":"549.031","MEAN_MOTION_DOT":"0.00010786","NORAD_CAT_ID":"47754","TLE_LINE1":"1 47754U 21017AJ  23063.83606492  .00010786  00000-0  74182-3 0  9997","PERIAPSIS":"545.369","DECAY_DATE":null,"PERIOD":"95.592","EPHEMERIS_TYPE":"0","MEAN_ANOMALY":"279.5483","SEMIMAJOR_AXIS":"6925.335","CENTER_NAME":"EARTH","REF_FRAME":"TEME","OBJECT_TYPE":"PAYLOAD","TIME_SYSTEM":"UTC","MEAN_MOTION_DDOT":"0.0000000000000","OBJECT_ID":"2021-017AJ","BSTAR":"0.00074182000000","ELEMENT_SET_NO":"999"},{"OBJECT_TYPE":"PAYLOAD","TIME_SYSTEM":"UTC","CENTER_NAME":"EARTH","SEMIMAJOR_AXIS":"6925.326","REF_FRAME":"TEME","BSTAR":"0.00067470000000","ELEMENT_SET_NO":"999","MEAN_MOTION_DDOT":"0.0000000000000","OBJECT_ID":"2021-017AL","NORAD_CAT_ID":"47756","PERIAPSIS":"546.173","TLE_LINE1":"1 47756U 21017AL  23063.83237374  .00009784  00000-0  67470-3 0  9996","MEAN_MOTION_DOT":"0.00009784","EPHEMERIS_TYPE":"0","DECAY_DATE":null,"PERIOD":"95.592","MEAN_ANOMALY":"273.5404","RA_OF_ASC_NODE":"113.5615","ARG_OF_PERICENTER":"86.5753","RCS_SIZE":"LARGE","FILE":"3851350","MEAN_MOTION":"15.06407466","LAUNCH_DATE":"2021-03-04","APOAPSIS":"548.208","OBJECT_NAME":"STARLINK-2174","COUNTRY_CODE":"US","GP_ID":"227506633","EPOCH":"2023-03-04T19:58:37.091136","SITE":"AFETR","ECCENTRICITY":"0.00014690","INCLINATION":"53.0529","CLASSIFICATION_TYPE":"U","TLE_LINE2":"2 47756  53.0529 113.5615 0001469  86.5753 273.5404 15.06407466111851","REV_AT_EPOCH":"11185","MEAN_ELEMENT_THEORY":"SGP4"},{"MEAN_ANOMALY":"260.2482","PERIOD":"95.590","DECAY_DATE":null,"EPHEMERIS_TYPE":"0","PERIAPSIS":"546.084","TLE_LINE1":"1 47757U 21017AM  23063.61858800  .00041318  00000-0  27743-2 0  9993","NORAD_CAT_ID":"47757","MEAN_MOTION_DOT":"0.00041318","ELEMENT_SET_NO":"999","BSTAR":"0.00277430000000","OBJECT_ID":"2021-017AM","MEAN_MOTION_DDOT":"0.0000000000000","TIME_SYSTEM":"UTC","OBJECT_TYPE":"PAYLOAD","REF_FRAME":"TEME","SEMIMAJOR_AXIS":"6925.256","CENTER_NAME":"EARTH","TLE_LINE2":"2 47757  53.0557 114.5147 0001498  99.8677 260.2482 15.06430169111763","REV_AT_EPOCH":"11176","CLASSIFICATION_TYPE":"U","INCLINATION":"53.0557","MEAN_ELEMENT_THEORY":"SGP4","OBJECT_NAME":"STARLINK-2175","ECCENTRICITY":"0.00014980","SITE":"AFETR","EPOCH":"2023-03-04T14:50:46.003200","GP_ID":"227506882","COUNTRY_CODE":"US","APOAPSIS":"548.158","LAUNCH_DATE":"2021-03-04","RA_OF_ASC_NODE":"114.5147","FILE":"3851350","MEAN_MOTION":"15.06430169","RCS_SIZE":"LARGE","ARG_OF_PERICENTER":"99.8677"},{"MEAN_ELEMENT_THEORY":"SGP4","CLASSIFICATION_TYPE":"U","TLE_LINE2":"2 47760  53.0535 123.4794 0001232  98.6937 261.4192 15.06386113111032","REV_AT_EPOCH":"11103","INCLINATION":"53.0535","EPOCH":"2023-03-04T20:23:49.896384","SITE":"AFETR","ECCENTRICITY":"0.00012320","COUNTRY_CODE":"US","GP_ID":"227482363","OBJECT_NAME":"STARLINK-2178","APOAPSIS":"548.109","LAUNCH_DATE":"2021-03-04","MEAN_MOTION":"15.06386113","FILE":"3851190","ARG_OF_PERICENTER":"98.6937","RCS_SIZE":"LARGE","RA_OF_ASC_NODE":"123.4794","MEAN_ANOMALY":"261.4192","EPHEMERIS_TYPE":"0","DECAY_DATE":null,"PERIOD":"95.593","MEAN_MOTION_DOT":"-0.00008049","PERIAPSIS":"546.403","TLE_LINE1":"1 47760U 21017AQ  23063.84988306 -.00008049  00000-0 -52229-3 0  9991","NORAD_CAT_ID":"47760","OBJECT_ID":"2021-017AQ","MEAN_MOTION_DDOT":"0.0000000000000","ELEMENT_SET_NO":"999","BSTAR":"-0.00052229000000","REF_FRAME":"TEME","CENTER_NAME":"EARTH","SEMIMAJOR_AXIS":"6925.391","TIME_SYSTEM":"UTC","OBJECT_TYPE":"PAYLOAD"},{"LAUNCH_DATE":"2021-03-04","APOAPSIS":"548.012","RA_OF_ASC_NODE":"114.5348","ARG_OF_PERICENTER":"98.2615","RCS_SIZE":"LARGE","FILE":"3851350","MEAN_MOTION":"15.06415710","INCLINATION":"53.0524","CLASSIFICATION_TYPE":"U","TLE_LINE2":"2 47761  53.0524 114.5348 0001222  98.2615 261.8513 15.06415710111773","REV_AT_EPOCH":"11177","MEAN_ELEMENT_THEORY":"SGP4","OBJECT_NAME":"STARLINK-2179","COUNTRY_CODE":"US","GP_ID":"227508371","EPOCH":"2023-03-04T14:45:27.581184","SITE":"AFETR","ECCENTRICITY":"0.00012220","BSTAR":"0.00189040000000","ELEMENT_SET_NO":"999","MEAN_MOTION_DDOT":"0.0000000000000","OBJECT_ID":"2021-017AR","OBJECT_TYPE":"PAYLOAD","TIME_SYSTEM":"UTC","CENTER_NAME":"EARTH","SEMIMAJOR_AXIS":"6925.300","REF_FRAME":"TEME","EPHEMERIS_TYPE":"0","DECAY_DATE":null,"PERIOD":"95.591","MEAN_ANOMALY":"261.8513","NORAD_CAT_ID":"47761","PERIAPSIS":"546.319","TLE_LINE1":"1 47761U 21017AR  23063.61490256  .00028000  00000-0  18904-2 0  9997","MEAN_MOTION_DOT":"0.00028000"},{"MEAN_MOTION_DOT":"0.00012216","TLE_LINE1":"1 47762U 21017AS  23063.90656274  .00012216  00000-0  83761-3 0  9990","PERIAPSIS":"545.780","NORAD_CAT_ID":"47762","MEAN_ANOMALY":"267.9358","EPHEMERIS_TYPE":"0","DECAY_DATE":null,"PERIOD":"95.592","REF_FRAME":"TEME","CENTER_NAME":"EARTH","SEMIMAJOR_AXIS":"6925.354","TIME_SYSTEM":"UTC","OBJECT_TYPE":"PAYLOAD","OBJECT_ID":"2021-017AS","MEAN_MOTION_DDOT":"0.0000000000000","ELEMENT_SET_NO":"999","BSTAR":"0.00083761000000","EPOCH":"2023-03-04T21:45:27.020736","SITE":"AFETR","ECCENTRICITY":"0.00020780","COUNTRY_CODE":"US","GP_ID":"227507133","OBJECT_NAME":"STARLINK-2180","MEAN_ELEMENT_THEORY":"SGP4","CLASSIFICATION_TYPE":"U","REV_AT_EPOCH":"11162","TLE_LINE2":"2 47762  53.0513 128.2359 0002078  92.1869 267.9358 15.06398186111625","INCLINATION":"53.0513","FILE":"3851350","MEAN_MOTION":"15.06398186","ARG_OF_PERICENTER":"92.1869","RCS_SIZE":"LARGE","RA_OF_ASC_NODE":"128.2359","APOAPSIS":"548.658","LAUNCH_DATE":"2021-03-04"},{"BSTAR":"0.00105970000000","ELEMENT_SET_NO":"999","MEAN_MOTION_DDOT":"0.0000000000000","OBJECT_ID":"2021-017AT","OBJECT_TYPE":"PAYLOAD","TIME_SYSTEM":"UTC","CENTER_NAME":"EARTH","SEMIMAJOR_AXIS":"6925.348","REF_FRAME":"TEME","EPHEMERIS_TYPE":"0","DECAY_DATE":null,"PERIOD":"95.592","MEAN_ANOMALY":"281.1680","NORAD_CAT_ID":"47763","PERIAPSIS":"545.930","TLE_LINE1":"1 47763U 21017AT  23063.85587621  .00015538  00000-0  10597-2 0  9990","MEAN_MOTION_DOT":"0.00015538","LAUNCH_DATE":"2021-03-04","APOAPSIS":"548.497","RA_OF_ASC_NODE":"118.4511","ARG_OF_PERICENTER":"78.9517","RCS_SIZE":"LARGE","FILE":"3851350","MEAN_MOTION":"15.06400062","INCLINATION":"53.0543","CLASSIFICATION_TYPE":"U","REV_AT_EPOCH":"11173","TLE_LINE2":"2 47763  53.0543 118.4511 0001853  78.9517 281.1680 15.06400062111737","MEAN_ELEMENT_THEORY":"SGP4","OBJECT_NAME":"STARLINK-2181","COUNTRY_CODE":"US","GP_ID":"227507382","EPOCH":"2023-03-04T20:32:27.704544","ECCENTRICITY":"0.00018530","SITE":"AFETR"},{"EPOCH":"2023-03-04T21:24:12.357216","ECCENTRICITY":"0.00006620","SITE":"AFETR","COUNTRY_CODE":"US","GP_ID":"227482271","OBJECT_NAME":"STARLINK-2182","MEAN_ELEMENT_THEORY":"SGP4","CLASSIFICATION_TYPE":"U","REV_AT_EPOCH":"11097","TLE_LINE2":"2 47764  53.0531 128.2943 0000662  77.4630 282.6433 15.06385077110975","INCLINATION":"53.0531","FILE":"3851191","MEAN_MOTION":"15.06385077","ARG_OF_PERICENTER":"77.4630","RCS_SIZE":"LARGE","RA_OF_ASC_NODE":"128.2943","APOAPSIS":"547.718","LAUNCH_DATE":"2021-03-04","MEAN_MOTION_DOT":"0.00004340","TLE_LINE1":"1 47764U 21017AU  23063.89180969  .00004340  00000-0  31017-3 0  9999","PERIAPSIS":"546.801","NORAD_CAT_ID":"47764","MEAN_ANOMALY":"282.6433","DECAY_DATE":null,"EPHEMERIS_TYPE":"0","PERIOD":"95.593","REF_FRAME":"TEME","CENTER_NAME":"EARTH","SEMIMAJOR_AXIS":"6925.394","TIME_SYSTEM":"UTC","OBJECT_TYPE":"PAYLOAD","OBJECT_ID":"2021-017AU","MEAN_MOTION_DDOT":"0.0000000000000","ELEMENT_SET_NO":"999","BSTAR":"0.00031017000000"},{"OBJECT_NAME":"STARLINK-2184","EPOCH":"2023-03-04T21:49:22.924704","ECCENTRICITY":"0.00009900","SITE":"AFETR","COUNTRY_CODE":"US","GP_ID":"227507872","CLASSIFICATION_TYPE":"U","REV_AT_EPOCH":"11159","TLE_LINE2":"2 47766  53.0525 128.2038 0000990 103.4989 256.6110 15.06402428111598","INCLINATION":"53.0525","MEAN_ELEMENT_THEORY":"SGP4","RA_OF_ASC_NODE":"128.2038","FILE":"3851350","MEAN_MOTION":"15.06402428","ARG_OF_PERICENTER":"103.4989","RCS_SIZE":"LARGE","APOAPSIS":"547.892","LAUNCH_DATE":"2021-03-04","PERIAPSIS":"546.521","TLE_LINE1":"1 47766U 21017AW  23063.90929311  .00010272  00000-0  70744-3 0  9996","NORAD_CAT_ID":"47766","MEAN_MOTION_DOT":"0.00010272","MEAN_ANOMALY":"256.6110","EPHEMERIS_TYPE":"0","DECAY_DATE":null,"PERIOD":"95.592","TIME_SYSTEM":"UTC","OBJECT_TYPE":"PAYLOAD","REF_FRAME":"TEME","CENTER_NAME":"EARTH","SEMIMAJOR_AXIS":"6925.341","ELEMENT_SET_NO":"999","BSTAR":"0.00070744000000","OBJECT_ID":"2021-017AW","MEAN_MOTION_DDOT":"0.0000000000000"},{"TLE_LINE1":"1 47767U 21017AX  23063.86923131  .00001825  00000-0  14141-3 0  9999","PERIAPSIS":"546.199","NORAD_CAT_ID":"47767","MEAN_MOTION_DOT":"0.00001825","MEAN_ANOMALY":"270.7547","EPHEMERIS_TYPE":"0","DECAY_DATE":null,"PERIOD":"95.592","TIME_SYSTEM":"UTC","OBJECT_TYPE":"PAYLOAD","REF_FRAME":"TEME","CENTER_NAME":"EARTH","SEMIMAJOR_AXIS":"6925.351","ELEMENT_SET_NO":"999","BSTAR":"0.00014141000000","OBJECT_ID":"2021-017AX","MEAN_MOTION_DDOT":"0.0000000000000","OBJECT_NAME":"STARLINK-2185","EPOCH":"2023-03-04T20:51:41.585184","SITE":"AFETR","ECCENTRICITY":"0.00014690","COUNTRY_CODE":"US","GP_ID":"227482378","CLASSIFICATION_TYPE":"U","TLE_LINE2":"2 47767  53.0520 113.3949 0001469  89.3610 270.7547 15.06399128111183","REV_AT_EPOCH":"11118","INCLINATION":"53.0520","MEAN_ELEMENT_THEORY":"SGP4","RA_OF_ASC_NODE":"113.3949","FILE":"3851192","MEAN_MOTION":"15.06399128","ARG_OF_PERICENTER":"89.3610","RCS_SIZE":"LARGE","APOAPSIS":"548.234","LAUNCH_DATE":"2021-03-04"}];
